$$SOE
2461302.500000000, A.D. 2026-Sep-19 00:00:00.0000, -1.623062827825265E+08, 1.909873267108941E+08, -9.108327537196094E+07,
2461309.500000000, A.D. 2026-Sep-26 00:00:00.0000, -1.735312611382526E+08, 1.866397511594146E+08, -8.945423767696920E+07,
2461316.500000000, A.D. 2026-Oct-03 00:00:00.0000, -1.843288848628750E+08, 1.818322826075749E+08, -8.760472706260115E+07,
2461323.500000000, A.D. 2026-Oct-10 00:00:00.0000, -1.946885321314925E+08, 1.765925557319840E+08, -8.554690691674112E+07,
2461330.500000000, A.D. 2026-Oct-17 00:00:00.0000, -2.046008503580230E+08, 1.709468997997691E+08, -8.329238936178583E+07,
2461337.500000000, A.D. 2026-Oct-24 00:00:00.0000, -2.140575694695686E+08, 1.649204358073198E+08, -8.085227356563470E+07,
2461344.500000000, A.D. 2026-Oct-31 00:00:00.0000, -2.230513409627900E+08, 1.585371710279559E+08, -7.823718374667606E+07,
2461351.500000000, A.D. 2026-Nov-07 00:00:00.0000, -2.315755986777244E+08, 1.518200903092782E+08, -7.545730645513515E+07,
2461358.500000000, A.D. 2026-Nov-14 00:00:00.0000, -2.396244379107711E+08, 1.447912445992044E+08, -7.252242679740109E+07,
2461365.500000000, A.D. 2026-Nov-21 00:00:00.0000, -2.471925119779651E+08, 1.374718372102507E+08, -6.944196322520223E+07,
2461372.500000000, A.D. 2026-Nov-28 00:00:00.0000, -2.542749449361655E+08, 1.298823048182982E+08, -6.622500098057068E+07,
2461379.500000000, A.D. 2026-Dec-05 00:00:00.0000, -2.608672548874965E+08, 1.220423926675576E+08, -6.288032457715259E+07,
2461386.500000000, A.D. 2026-Dec-12 00:00:00.0000, -2.669652860393331E+08, 1.139712272888215E+08, -5.941644911367737E+07,
2461393.500000000, A.D. 2026-Dec-19 00:00:00.0000, -2.725651500180395E+08, 1.056873869918248E+08, -5.584165032664932E+07,
2461400.500000000, A.D. 2026-Dec-26 00:00:00.0000, -2.776631754097804E+08, 9.720896957225187E+07, -5.216399354939352E+07,
2461407.500000000, A.D. 2027-Jan-02 00:00:00.0000, -2.822558642631404E+08, 8.855365737836693E+07, -4.839136173962699E+07,
2461414.500000000, A.D. 2027-Jan-09 00:00:00.0000, -2.863398546067090E+08, 7.973878011008461E+07, -4.453148271607650E+07,
2461421.500000000, A.D. 2027-Jan-16 00:00:00.0000, -2.899118882512164E+08, 7.078137572595534E+07, -4.059195574443582E+07,
2461428.500000000, A.D. 2027-Jan-23 00:00:00.0000, -2.929687832462848E+08, 6.169824978944144E+07, -3.658027762007623E+07,
2461435.500000000, A.D. 2027-Jan-30 00:00:00.0000, -2.955074103218144E+08, 5.250603356930175E+07, -3.250386841342465E+07,
2461442.500000000, A.D. 2027-Feb-06 00:00:00.0000, -2.975246725149734E+08, 4.322124158786577E+07, -2.837009704709040E+07,
2461449.500000000, A.D. 2027-Feb-13 00:00:00.0000, -2.990174881794125E+08, 3.386033019886780E+07, -2.418630673674958E+07,
2461456.500000000, A.D. 2027-Feb-20 00:00:00.0000, -2.999827795741718E+08, 2.443975678907057E+07, -1.995984032659855E+07,
2461463.500000000, A.D. 2027-Feb-27 00:00:00.0000, -3.004174655493113E+08, 1.497603680033648E+07, -1.569806609407738E+07,
2461470.500000000, A.D. 2027-Mar-06 00:00:00.0000, -3.003184552818577E+08, 5.485800924324096E+06, -1.140840432482260E+07,
2461477.500000000, A.D. 2027-Mar-13 00:00:00.0000, -2.996826446897680E+08, -4.014145046158824E+06, -7.098354526994018E+06,
2461484.500000000, A.D. 2027-Mar-20 00:00:00.0000, -2.985069167642298E+08, -1.350675810344365E+07, -2.775523445512348E+06,
2461491.500000000, A.D. 2027-Mar-27 00:00:00.0000, -2.967881458200259E+08, -2.297469373205714E+07, 1.552345850335913E+06,
2461498.500000000, A.D. 2027-Apr-03 00:00:00.0000, -2.945232057426106E+08, -3.240023899360351E+07, 5.877343559528928E+06,
2461505.500000000, A.D. 2027-Apr-10 00:00:00.0000, -2.917089825468949E+08, -4.176524246374577E+07, 1.019136117558498E+07,
2461512.500000000, A.D. 2027-Apr-17 00:00:00.0000, -2.883423917302917E+08, -5.105104052065145E+07, 1.448605767898205E+07,
2461519.500000000, A.D. 2027-Apr-24 00:00:00.0000, -2.844204010029898E+08, -6.023837950650921E+07, 1.875282360114192E+07,
2461526.500000000, A.D. 2027-May-01 00:00:00.0000, -2.799400589316660E+08, -6.930733315445468E+07, 2.298274263937988E+07,
2461533.500000000, A.D. 2027-May-08 00:00:00.0000, -2.748985302099062E+08, -7.823721391096157E+07, 2.716655054850479E+07,
2461540.500000000, A.D. 2027-May-15 00:00:00.0000, -2.692931402799628E+08, -8.700647654767543E+07, 3.129459120328883E+07,
2461547.500000000, A.D. 2027-May-22 00:00:00.0000, -2.631214323494091E+08, -9.559261598761874E+07, 3.535676942845292E+07,
2461554.500000000, A.D. 2027-May-29 00:00:00.0000, -2.563812352390612E+08, -1.039720601449870E+08, 3.934249982393251E+07,
2461561.500000000, A.D. 2027-Jun-05 00:00:00.0000, -2.490707433375693E+08, -1.121200539833339E+08, 4.324065141135576E+07,
2461568.500000000, A.D. 2027-Jun-12 00:00:00.0000, -2.411886132614415E+08, -1.200105337315016E+08, 4.703948797078250E+07,
2461575.500000000, A.D. 2027-Jun-19 00:00:00.0000, -2.327340806700005E+08, -1.276159916588837E+08, 5.072660368091865E+07,
2461582.500000000, A.D. 2027-Jun-26 00:00:00.0000, -2.237071007256173E+08, -1.349073313058279E+08, 5.428885371693578E+07,
2461589.500000000, A.D. 2027-Jul-03 00:00:00.0000, -2.141085166083377E+08, -1.418537130438765E+08, 5.771227958572989E+07,
2461596.500000000, A.D. 2027-Jul-10 00:00:00.0000, -2.039402614857645E+08, -1.484223902088478E+08, 6.098202913615269E+07,
2461603.500000000, A.D. 2027-Jul-17 00:00:00.0000, -1.932056003913217E+08, -1.545785366375878E+08, 6.408227140213153E+07,
2461610.500000000, A.D. 2027-Jul-24 00:00:00.0000, -1.819094195749392E+08, -1.602850672382112E+08, 6.699610674666529E+07,
2461617.500000000, A.D. 2027-Jul-31 00:00:00.0000, -1.700585720557692E+08, -1.655024540279901E+08, 6.970547323476318E+07,
2461624.500000000, A.D. 2027-Aug-07 00:00:00.0000, -1.576622903242091E+08, -1.701885407101045E+08, 7.219105094547921E+07,
2461631.500000000, A.D. 2027-Aug-14 00:00:00.0000, -1.447326810012695E+08, -1.742983624285276E+08, 7.443216692899196E+07,
2461638.500000000, A.D. 2027-Aug-21 00:00:00.0000, -1.312853151922759E+08, -1.777839834314409E+08, 7.640670427770826E+07,
2461645.500000000, A.D. 2027-Aug-28 00:00:00.0000, -1.173399272558802E+08, -1.805943648522386E+08, 7.809102067065795E+07,
2461652.500000000, A.D. 2027-Sep-04 00:00:00.0000, -1.029212408020462E+08, -1.826752789324859E+08, 7.945988468555075E+07,
2461659.500000000, A.D. 2027-Sep-11 00:00:00.0000, -8.805994168458472E+07, -1.839692963317085E+08, 8.048644114720851E+07,
2461666.500000000, A.D. 2027-Sep-18 00:00:00.0000, -7.279381553898585E+07, -1.844158824576261E+08, 8.114222085993853E+07,
2461673.500000000, A.D. 2027-Sep-25 00:00:00.0000, -5.716906414786546E+07, -1.839516499939229E+08, 8.139721553037922E+07,
2461680.500000000, A.D. 2027-Oct-02 00:00:00.0000, -4.124180785322126E+07, -1.825108292394555E+08, 8.122004549257483E+07,
2461687.500000000, A.D. 2027-Oct-09 00:00:00.0000, -2.507976782105497E+07, -1.800260349634142E+08, 8.057825597264931E+07,
2461694.500000000, A.D. 2027-Oct-16 00:00:00.0000, -8.764099229539618E+06, -1.764294271270091E+08, 7.943878671215925E+07,
2461701.500000000, A.D. 2027-Oct-23 00:00:00.0000, 7.608689337839487E+06, -1.716543805553873E+08, 7.776866885176931E+07,
2461708.500000000, A.D. 2027-Oct-30 00:00:00.0000, 2.392484755326437E+07, -1.656377903841766E+08, 7.553601016043887E+07,
2461715.500000000, A.D. 2027-Nov-06 00:00:00.0000, 4.005171413661810E+07, -1.583231386228188E+08, 7.271133158905742E+07,
2461722.500000000, A.D. 2027-Nov-13 00:00:00.0000, 5.583654633609475E+07, -1.496644240659785E+08, 6.926930877538151E+07,
2461729.500000000, A.D. 2027-Nov-20 00:00:00.0000, 7.110623792073447E+07, -1.396309901507505E+08, 6.519094417706744E+07,
2461736.500000000, A.D. 2027-Nov-27 00:00:00.0000, 8.566841366485651E+07, -1.282131533258704E+08, 6.046614168403089E+07,
2461743.500000000, A.D. 2027-Dec-04 00:00:00.0000, 9.931444184702460E+07, -1.154283378931998E+08, 5.509656769277498E+07,
2461750.500000000, A.D. 2027-Dec-11 00:00:00.0000, 1.118248678531537E+08, -1.013271596357983E+08, 4.909856120284387E+07,
2461757.500000000, A.D. 2027-Dec-18 00:00:00.0000, 1.229775718636880E+08, -8.599860661306737E+07, 4.250571698088267E+07,
2461764.500000000, A.D. 2027-Dec-25 00:00:00.0000, 1.325585454128765E+08, -6.957323032078175E+07, 3.537064762378488E+07,
2461771.500000000, A.D. 2028-Jan-01 00:00:00.0000, 1.403745819019198E+08, -5.222321124817216E+07, 2.776539033267259E+07,
$$EOE